[{"OBJECT_NAME":"STARLINK-34428","OBJECT_ID":"2025-123C","EPOCH":"2026-03-09T16:54:24.343488","MEAN_MOTION":14.98337283,"ECCENTRICITY":0.0003157,"INCLINATION":70.003,"RA_OF_ASC_NODE":194.3014,"ARG_OF_PERICENTER":272.9746,"MEAN_ANOMALY":87.1052,"EPHEMERIS_TYPE":0,"CLASSIFICATION_TYPE":"U","NORAD_CAT_ID":64293,"ELEMENT_SET_NO":999,"REV_AT_EPOCH":4284,"BSTAR":0.00064668709,"MEAN_MOTION_DOT":7.633e-5,"MEAN_MOTION_DDOT":0},{"OBJECT_NAME":"FENGYUN 1C DEB","OBJECT_ID":"1999-025RK","EPOCH":"2026-03-09T17:38:14.291232","MEAN_MOTION":14.95383795,"ECCENTRICITY":0.00371964,"INCLINATION":98.9196,"RA_OF_ASC_NODE":352.1506,"ARG_OF_PERICENTER":284.0168,"MEAN_ANOMALY":136.3268,"EPHEMERIS_TYPE":0,"CLASSIFICATION_TYPE":"U","NORAD_CAT_ID":30106,"ELEMENT_SET_NO":999,"REV_AT_EPOCH":99840,"BSTAR":0.0053227568,"MEAN_MOTION_DOT":0.0005999,"MEAN_MOTION_DDOT":0}]
